OBJECT_NAME,OBJECT_ID,EPOCH,MEAN_MOTION,ECCENTRICITY,INCLINATION,RA_OF_ASC_NODE,ARG_OF_PERICENTER,MEAN_ANOMALY,EPHEMERIS_TYPE,CLASSIFICATION_TYPE,NORAD_CAT_ID,ELEMENT_SET_NO,REV_AT_EPOCH,BSTAR,MEAN_MOTION_DOT,MEAN_MOTION_DDOT
HODOYOSHI-4,2014-033B,2026-07-16T19:41:57.952896,14.88193625,.002275,97.5455,21.2146,203.8790,156.1374,0,U,40011,999,65321,.1072E-3,.94E-5,0
DEIMOS-2,2014-033D,2026-07-16T20:35:48.814368,14.93796821,.0001106,97.5784,71.2995,110.1143,250.0196,0,U,40013,999,64215,.73841E-4,.729E-5,0
HODOYOSHI-3,2014-033F,2026-07-16T10:05:20.393088,14.85438467,.0031327,97.6447,359.2898,257.6701,102.1007,0,U,40015,999,65196,.60467E-4,.472E-5,0
SPOT 7,2014-034A,2026-07-16T20:05:23.193600,14.60981533,.0001587,98.0615,259.5625,94.2421,265.8961,0,U,40053,999,64146,.4087E-4,.155E-5,0
SKYSAT-B,2014-037D,2026-07-16T10:37:31.469376,14.88093555,.0005674,98.3854,158.0796,168.9313,191.2027,0,U,40072,999,65031,.71529E-4,.596E-5,0
WORLDVIEW-3 (WV-3),2014-048A,2026-07-16T19:32:30.660864,14.85065656,.0001423,97.8556,272.2369,153.3342,206.7946,0,U,40115,999,64630,.47888E-4,.356E-5,0
GAOFEN-2,2014-049A,2026-07-16T20:07:04.300608,14.80927528,.0008333,98.0097,262.0151,129.6742,230.5206,0,U,40118,999,64362,-.13075E-4,-.155E-5,0
YAOGAN-21,2014-053A,2026-07-16T20:32:20.788224,15.26769421,.000763,97.1451,236.8230,2.1597,357.9674,0,U,40143,999,65948,.91477E-4,.2339E-4,0
YAOGAN-22,2014-063A,2026-07-16T09:20:34.319904,13.15531517,.0006882,100.7763,349.1522,122.7206,237.4569,0,U,40275,999,56365,.11304E-4,-.43E-6,0
ASNARO,2014-070A,2026-07-16T20:33:18.733248,15.19393088,.0004865,97.3444,273.1732,84.0325,276.1464,0,U,40298,999,64851,.1773E-3,.3686E-4,0
YAOGAN-24,2014-072A,2026-07-16T20:09:16.585056,14.76120777,.0014714,98.1528,335.4304,164.3870,195.7795,0,U,40310,999,62809,.81822E-4,.513E-5,0
CBERS 4,2014-079A,2026-07-16T20:52:10.289856,14.35515464,.0000731,98.3516,253.7674,53.1488,306.9765,0,U,40336,999,60821,-.39573E-4,-.156E-5,0
YAOGAN-26,2014-088A,2026-07-16T20:52:45.146208,15.48485366,.0001635,97.0649,197.4083,331.6021,28.5141,0,U,40362,999,64229,.20315E-3,.1071E-3,0
SMAP,2015-003A,2026-07-16T19:45:37.348416,14.63389880,.0001611,98.1284,204.4992,94.2357,265.9029,0,U,40376,999,61195,.41165E-4,.166E-5,0
KOMPSAT-3A,2015-014A,2026-07-16T21:53:50.564256,15.55498636,.0056068,97.6893,191.4833,69.6195,291.1069,0,U,40536,999,62643,.29399E-3,.21453E-3,0
SENTINEL-2A,2015-028A,2026-07-16T20:45:40.363200,14.30814394,.0001283,98.5681,272.2938,93.6328,266.5001,0,U,40697,999,57797,-.10453E-5,-.46E-6,0
GAOFEN-8,2015-030A,2026-07-16T20:26:42.827712,15.46991321,.0009961,97.6887,33.0246,90.1161,270.1229,0,U,40701,999,61603,.35086E-3,.17659E-3,0
CARBONITE 1 (CBNT-1),2015-032D,2026-07-16T20:35:08.384352,14.83673064,.0013997,97.6516,14.6846,191.2666,168.8237,0,U,40718,999,59374,.19664E-3,.1576E-4,0
YAOGAN-27,2015-040A,2026-07-16T21:42:48.422304,13.16071502,.0008604,100.1168,183.0001,141.4179,218.7551,0,U,40878,999,52157,-.77616E-3,-.337E-5,0
GAOFEN-9 01,2015-047A,2026-07-16T21:17:28.597920,14.82936790,.0028347,97.6264,232.2311,45.1569,315.1941,0,U,40894,999,58459,.60904E-4,.446E-5,0
YAOGAN-28,2015-064A,2026-07-16T20:45:45.771840,15.27772559,.001207,97.3115,335.5348,88.0103,272.2519,0,U,41026,999,59521,.13311E-3,.3544E-4,0
YAOGAN-29,2015-069A,2026-07-16T20:43:29.091360,14.83107231,.0000629,98.0015,226.5417,13.1703,346.9526,0,U,41038,999,57502,.3519E-5,-.25E-6,0
KENT RIDGE 1,2015-077B,2026-07-16T18:16:19.254144,15.23288686,.0008274,14.9805,46.0141,296.8325,63.1151,0,U,41167,999,58561,.64475E-4,.2336E-4,0
GAOFEN-4,2015-083A,2026-07-16T20:40:02.933184,1.00271819,.0004267,0.4320,83.7427,125.6776,140.9759,0,U,41194,999,3882,0,-.345E-5,0
JASON-3,2016-002A,2026-07-16T19:52:19.145568,12.87628712,.0008165,66.0416,63.5194,270.7524,89.2559,0,U,41240,999,49106,.11867E-3,-.32E-6,0
SENTINEL-3A,2016-011A,2026-07-16T19:28:21.518688,14.26740023,.0001354,98.6236,264.7674,89.3793,270.7543,0,U,41335,999,54228,.34464E-4,.4E-6,0
ZIYUAN 3-02 (ZY 3-02),2016-033A,2026-07-16T20:29:32.657280,15.21443813,.0014275,97.3826,273.0580,179.1230,181.0033,0,U,41556,999,56249,.12101E-3,.2655E-4,0
CARTOSAT-2C,2016-040A,2026-07-16T21:31:47.561664,15.19270242,.0009407,97.4468,257.4633,39.8971,320.2953,0,U,41599,999,55822,.71082E-4,.1432E-4,0
SKYSAT-C1,2016-040C,2026-07-16T15:39:15.301152,15.36763049,.0000246,96.9547,227.7813,251.8457,108.2762,0,U,41601,999,56239,.14428E-3,.5107E-4,0
LAPAN-A3,2016-040E,2026-07-16T21:17:10.904928,15.33284037,.0008251,97.1506,193.0625,268.7072,91.3226,0,U,41603,999,55936,.5602E-4,.1728E-4,0
GAOFEN-3,2016-049A,2026-07-16T20:19:50.537280,14.42218266,.0001769,98.4011,205.1857,83.9608,276.1783,0,U,41727,999,52292,-.34486E-4,-.157E-5,0
